{
  "norad_id": 57341,
  "name": "STARLINK-6377",
  "history": [
    {
      "epoch": "2026-03-28T16:00:01.999584Z",
      "apogee_km": 523.9355944870749,
      "perigee_km": 522.3205604336472,
      "latitude_deg": -37.67699482863865,
      "longitude_deg": 23.419925360655288,
      "height_km": 533.4528435848273,
      "semi_major_axis_km": 6901.265077460361,
      "eccentricity": 0.00011701,
      "inclination_deg": 43.0006,
      "raan_deg": 144.9559,
      "arg_perigee_deg": 280.2695,
      "mean_anomaly_deg": 16.509,
      "mean_motion_rev_day": 15.14292246
    }
  ]
}