{"fetched_at":"2026-03-29T16:36:15Z","count":15609,"tles":[{"name":"STARLINK-6377","line1":"1 57341U 23099P   26087.66668981 -.01233801  00000+0 -72350-1 0  9993","line2":"2 57341  43.0006 144.9559 0001170 280.2695  16.5090 15.14292246  5735","category":"Starlink"}]}